*******************************************************************************
 Revised: Jun 05, 2014                Saturn                                699
 
 PHYSICAL DATA (updated 2009-May-26):
  Mass (10^26 kg)       = 5.68319         Density (g/cm^3)       =  0.687+-.001
  Equat. radius (1 bar) = 60268+-4 km     Polar radius (km)      = 54364+-10
  Volumetric mean radius= 58232+-6 km     Flattening             =  0.09796

  Rotation period       = 10h 39m 22.4s   Rot. rate(10^-4 rad/s) =  1.63785 
  m = w^2a^3/GM         =  0.15481        Hydrostatic flat., fh  =  0.09829
  Inferred rot. period  = 10.61+-0.02 hr  ks = 3*J2/m            =  0.317
  Mom. of inert. I/MRo^2=  0.210          I/MRo^2 (upper bound)  =  0.231 
  Rocky core mass (Mc/M)=  0.1027         Y factor (He/H ratio)  =  

  GM (km^3/s^2)         = 37931207.8      GM 1-sigma (km^3/s^2)  = +- 98
  Equ. grav, ge (m/s^2) = 10.44           Pol. grav, gp (m/s^2)  = 12.14+-0.01

  Geometric albedo      =  0.47           Visual magnitude V(1,0)= -8.88
  Vis. mag. (opposition)= +0.67           Obliquity to orbit     = 26.73 deg
  Sidereal orbit period = 29.447498 yr    Sidereal orbit period  = 10755.698 d
  Mean daily motion     = 0.0334979 deg/d Mean orbit velocity    =  9.6624 km/s

  Atmos. temp. (1 bar)  = 134+-4 K        Heat flow/mass (x10^7) = 15 erg/gm*s
  Planetary Solar Const =  15.04 W/m^2    Dipole tilt/offset     = 0.0deg/0.0Rp 
  Escape velocity (km/s)=  35.5           Mag.dip.mom(gauss-Rp^3)= 0.21
  Aroche(ice)/Rp        =  2.71           Hill's sphere rad. Rp  = 1100
*******************************************************************************
 
 
*******************************************************************************
Ephemeris / WWW_USER Sat Jan 17 01:41:09 2015 Pasadena, USA      / Horizons    
*******************************************************************************
Target body name: Saturn (699)                    {source: SAT368}
Center body name: Earth (399)                     {source: SAT368}
Center-site name: GEOCENTRIC
*******************************************************************************
Start time      : A.D. 2004-Jan-01 00:00:00.0000 UT      
Stop  time      : A.D. 2014-Dec-31 00:00:00.0000 UT      
Step-size       : 1440 minutes
*******************************************************************************
Target pole/equ : IAU_SATURN                      {East-longitude -}
Target radii    : 60268.0 x 60268.0 x 54364.0 km  {Equator, meridian, pole}    
Center geodetic : 0.00000000,0.00000000,0.0000000 {E-lon(deg),Lat(deg),Alt(km)}
Center cylindric: 0.00000000,0.00000000,0.0000000 {E-lon(deg),Dxy(km),Dz(km)}
Center pole/equ : High-precision EOP model        {East-longitude +}
Center radii    : 6378.1 x 6378.1 x 6356.8 km     {Equator, meridian, pole}    
Target primary  : Sun
Vis. interferer : MOON (R_eq= 1737.400) km        {source: SAT368}
Rel. light bend : Sun, EARTH                      {source: SAT368}
Rel. lght bnd GM: 1.3271E+11, 3.9860E+05 km^3/s^2                              
Atmos refraction: NO (AIRLESS)
RA format       : HMS
Time format     : CAL 
EOP file        : eop.150116.p150409                                           
EOP coverage    : DATA-BASED 1962-JAN-20 TO 2015-JAN-16. PREDICTS-> 2015-APR-08
Units conversion: 1 au= 149597870.700 km, c= 299792.458 km/s, 1 day= 86400.0 s 
Table cut-offs 1: Elevation (-90.0deg=NO ),Airmass (>38.000=NO), Daylight (NO )
Table cut-offs 2: Solar Elongation (  0.0,180.0=NO ),Local Hour Angle( 0.0=NO )
*******************************************************************************
 Date__(UT)__HR:MN      APmag  S-brt    S-T-O
*********************************************
$$SOE
 2013-Apr-23 00:00       0.84   6.91   0.6412
 2013-Apr-24 00:00       0.83   6.88   0.5466
 2013-Apr-25 00:00       0.83   6.90   0.4573
 2013-Apr-26 00:00       0.82   6.87   0.3773
 2013-Apr-27 00:00       0.82   6.89   0.3137
 2013-Apr-28 00:00       0.82   6.87   0.2784
 2013-Apr-29 00:00       0.82   6.89   0.2821
 2013-Apr-30 00:00       0.82   6.88   0.3236
 2013-May-01 00:00       0.83   6.89   0.3908
 2013-May-02 00:00       0.83   6.89   0.4730
 2013-May-03 00:00       0.83   6.90   0.5635
 2013-May-04 00:00       0.84   6.90   0.6588
 2013-May-05 00:00       0.84   6.90   0.7569
 2013-May-06 00:00       0.85   6.91   0.8569
 2013-May-07 00:00       0.85   6.91   0.9579
 2013-May-08 00:00       0.86   6.92   1.0596
 2013-May-09 00:00       0.86   6.91   1.1616
 2013-May-10 00:00       0.87   6.94   1.2638
 2013-May-11 00:00       0.87   6.92   1.3659
 2013-May-12 00:00       0.88   6.95   1.4679
 2013-May-13 00:00       0.89   6.92   1.5696
 2013-May-14 00:00       0.89   6.96   1.6710
 2013-May-15 00:00       0.90   6.93   1.7719
 2013-May-16 00:00       0.90   6.97   1.8724
 2013-May-17 00:00       0.91   6.93   1.9722
 2013-May-18 00:00       0.91   6.98   2.0715
 2013-May-19 00:00       0.92   6.94   2.1701
 2013-May-20 00:00       0.93   6.99   2.2680
 2013-May-21 00:00       0.93   6.95   2.3652
 2013-May-22 00:00       0.94   7.01   2.4616
 2013-May-23 00:00       0.94   6.95   2.5571
 2013-May-24 00:00       0.95   7.02   2.6518
 2013-May-25 00:00       0.96   6.96   2.7456
 2013-May-26 00:00       0.96   7.03   2.8385
 2013-May-27 00:00       0.97   6.96   2.9304
 2013-May-28 00:00       0.97   7.04   3.0213
 2013-May-29 00:00       0.98   6.97   3.1113
 2013-May-30 00:00       0.99   7.05   3.2001
 2013-May-31 00:00       0.99   6.97   3.2879
 2013-Jun-01 00:00       1.00   7.06   3.3746
 2013-Jun-02 00:00       1.00   6.98   3.4602
 2013-Jun-03 00:00       1.01   7.07   3.5446
 2013-Jun-04 00:00       1.02   6.98   3.6278
 2013-Jun-05 00:00       1.02   7.08   3.7098
 2013-Jun-06 00:00       1.03   6.99   3.7905
 2013-Jun-07 00:00       1.04   7.08   3.8700
 2013-Jun-08 00:00       1.04   6.99   3.9482
 2013-Jun-09 00:00       1.05   7.09   4.0251
 2013-Jun-10 00:00       1.05   7.00   4.1006
 2013-Jun-11 00:00       1.06   7.10   4.1747
 2013-Jun-12 00:00       1.07   7.00   4.2475
 2013-Jun-13 00:00       1.07   7.11   4.3189
 2013-Jun-14 00:00       1.08   7.01   4.3889
 2013-Jun-15 00:00       1.08   7.12   4.4574
 2013-Jun-16 00:00       1.09   7.01   4.5244
 2013-Jun-17 00:00       1.10   7.12   4.5900
 2013-Jun-18 00:00       1.10   7.02   4.6542
 2013-Jun-19 00:00       1.11   7.13   4.7168
 2013-Jun-20 00:00       1.11   7.02   4.7779
 2013-Jun-21 00:00       1.12   7.13   4.8375
 2013-Jun-22 00:00       1.13   7.03   4.8956
 2013-Jun-23 00:00       1.13   7.14   4.9521
 2013-Jun-24 00:00       1.14   7.03   5.0071
 2013-Jun-25 00:00       1.14   7.15   5.0606
 2013-Jun-26 00:00       1.15   7.04   5.1125
 2013-Jun-27 00:00       1.15   7.15   5.1628
 2013-Jun-28 00:00       1.16   7.04   5.2115
 2013-Jun-29 00:00       1.16   7.15   5.2587
 2013-Jun-30 00:00       1.17   7.04   5.3042
 2013-Jul-01 00:00       1.18   7.16   5.3482
 2013-Jul-02 00:00       1.18   7.05   5.3906
 2013-Jul-03 00:00       1.19   7.16   5.4313
 2013-Jul-04 00:00       1.19   7.05   5.4704
 2013-Jul-05 00:00       1.20   7.16   5.5079
 2013-Jul-06 00:00       1.20   7.06   5.5437
 2013-Jul-07 00:00       1.21   7.17   5.5779
 2013-Jul-08 00:00       1.21   7.06   5.6104
 2013-Jul-09 00:00       1.22   7.17   5.6414
 2013-Jul-10 00:00       1.22   7.06   5.6706
 2013-Jul-11 00:00       1.23   7.17   5.6982
 2013-Jul-12 00:00       1.23   7.07   5.7242
 2013-Jul-13 00:00       1.24   7.17   5.7485
 2013-Jul-14 00:00       1.24   7.07   5.7712
 2013-Jul-15 00:00       1.25   7.17   5.7922
 2013-Jul-16 00:00       1.25   7.07   5.8116
 2013-Jul-17 00:00       1.26   7.17   5.8294
 2013-Jul-18 00:00       1.26   7.08   5.8456
 2013-Jul-19 00:00       1.26   7.17   5.8601
 2013-Jul-20 00:00       1.27   7.08   5.8730
 2013-Jul-21 00:00       1.27   7.17   5.8843
 2013-Jul-22 00:00       1.28   7.08   5.8940
 2013-Jul-23 00:00       1.28   7.17   5.9021
 2013-Jul-24 00:00       1.29   7.08   5.9086
 2013-Jul-25 00:00       1.29   7.17   5.9135
 2013-Jul-26 00:00       1.29   7.09   5.9168
 2013-Jul-27 00:00       1.30   7.17   5.9186
 2013-Jul-28 00:00       1.30   7.09   5.9188
 2013-Jul-29 00:00       1.30   7.17   5.9174
 2013-Jul-30 00:00       1.31   7.09   5.9145
 2013-Jul-31 00:00       1.31   7.17   5.9100
 2013-Aug-01 00:00       1.31   7.09   5.9040
 2013-Aug-02 00:00       1.32   7.17   5.8964
 2013-Aug-03 00:00       1.32   7.09   5.8873
 2013-Aug-04 00:00       1.32   7.16   5.8767
 2013-Aug-05 00:00       1.33   7.09   5.8646
 2013-Aug-06 00:00       1.33   7.16   5.8510
 2013-Aug-07 00:00       1.33   7.10   5.8358
 2013-Aug-08 00:00       1.34   7.16   5.8192
 2013-Aug-09 00:00       1.34   7.10   5.8011
 2013-Aug-10 00:00       1.34   7.15   5.7816
 2013-Aug-11 00:00       1.34   7.10   5.7606
 2013-Aug-12 00:00       1.35   7.15   5.7381
 2013-Aug-13 00:00       1.35   7.10   5.7143
 2013-Aug-14 00:00       1.35   7.15   5.6890
 2013-Aug-15 00:00       1.35   7.10   5.6623
 2013-Aug-16 00:00       1.36   7.14   5.6343
 2013-Aug-17 00:00       1.36   7.10   5.6049
 2013-Aug-18 00:00       1.36   7.14   5.5741
 2013-Aug-19 00:00       1.36   7.10   5.5420
 2013-Aug-20 00:00       1.36   7.13   5.5086
 2013-Aug-21 00:00       1.37   7.10   5.4739
 2013-Aug-22 00:00       1.37   7.13   5.4378
 2013-Aug-23 00:00       1.37   7.10   5.4005
 2013-Aug-24 00:00       1.37   7.12   5.3619
 2013-Aug-25 00:00       1.37   7.10   5.3221
 2013-Aug-26 00:00       1.37   7.11   5.2810
 2013-Aug-27 00:00       1.38   7.10   5.2387
 2013-Aug-28 00:00       1.38   7.11   5.1951
 2013-Aug-29 00:00       1.38   7.09   5.1504
 2013-Aug-30 00:00       1.38   7.10   5.1044
 2013-Aug-31 00:00       1.38   7.09   5.0572
 2013-Sep-01 00:00       1.38   7.10   5.0089
 2013-Sep-02 00:00       1.38   7.09   4.9594
 2013-Sep-03 00:00       1.38   7.09   4.9088
 2013-Sep-04 00:00       1.38   7.09   4.8571
 2013-Sep-05 00:00       1.38   7.08   4.8042
